EUTELSAT 21B            
1 38992U 12062B   25362.61598345  .00000152  00000+0  00000+0 0  9997
2 38992   0.0647 357.6084 0003222 286.2541  56.8029  1.00272693 48114
EUTELSAT 70B            
1 39020U 12069A   25362.62569017 -.00000021  00000+0  00000+0 0  9998
2 39020   0.0606 355.9534 0004122 262.0103 135.1124  1.00271165 47792
EUTELSAT 117 WEST A     
1 39122U 13012A   25362.58850993  .00000010  00000+0  00000+0 0  9998
2 39122   0.0116 343.0363 0002967 298.3372 270.9882  1.00270867 46723
EUTELSAT 7B             
1 39163U 13022A   25362.54179630  .00000070  00000+0  00000+0 0  9998
2 39163   0.0682  16.3151 0004880 305.8402 337.1441  1.00272152 46237
EXPRESS-AT1             
1 39612U 14010A   25362.62283015  .00000101  00000+0  00000+0 0  9992
2 39612   0.0162 274.6658 0001115 229.2825 233.6086  1.00272393 43101
EXPRESS-AT2             
1 39613U 14010B   25362.23794859 -.00000259  00000+0  00000+0 0  9998
2 39613   0.0161 351.3622 0001874 288.9881  42.1256  1.00270075 42781
EUTELSAT 3B             
1 39773U 14030A   25362.54084295  .00000042  00000+0  00000+0 0  9996
2 39773   0.0596 357.3437 0004304 240.7287  56.9733  1.00270558 42359
EUTELSAT 115 WEST B     
1 40425U 15010B   25362.44628899 -.00000003  00000+0  00000+0 0  9992
2 40425   0.0105 156.1196 0000123 283.3479  63.4535  1.00272238 39681
